# Made by eph2tle, compiled Dec 20 2025 17:40:21
# Run at Mon Dec 22 01:35:44 2025 UTC
#
#    The following TLEs (Two-Line Elements) were generated by fitting
# a numerically-integrated ephemeris,  based on the orbit given below,
# to the SDP4/SGP4 models.  Each TLE is good for the interval between
# its epoch and the epoch of the subsequent TLE (usually one day).
# The maximum deviation between the numerically integrated ephemerides
# and the TLE-based ephemeris, in kilometers,  is given for each TLE
# as the "worst residual".
#
#    This fitting is done using the 'eph2tle' code packaged with Find_Orb.
# The code has details on how the TLEs were computed :
#
#    https://github.com/Bill-Gray/find_orb/eph2tle.cpp
#
#    Be warned:  the error given is that between the numerically
# integrated ephems and the TLE model.  There will usually be at
# least some additional difference between the ephems and the actual
# motion of the satellite,  especially if the ephemerides are based
# on a short arc.  If the following orbital elements say something
# like "[based on] 10 observations 2015 Jan. 1-13",  and the TLEs
# are for 2015 May,  the extrapolation may be tenuous at best.  If
# your application requires a specific level of accuracy,  you may
# want to contact me;  I can give you some idea as to the fit of the
# underlying data (and possibly TLEs based on newer data).
#
#   You can usually find the underlying observational data,  and the
# fitted orbit,  residuals,  ephemerides,  and sometimes some comments
# about the object,  among the pages listed at
#
#    https://www.projectpluto.com/pluto/mpecs/pseudo.htm
#
#    WARNING:  for this object,  "normal" TLEs cannot be fitted.  (This
# usually means an object with an hyperbolic or nearly-parabolic orbit.)
# For this and similar cases,   an alternative model is used,  in which
# most of the traditional TLE data is replaced by six signed 8-digit hex
# numbers.  These six numbers are a state vector,  numerically integrated
# using a simplified force model.  This is necessary for objects at L2 or
# L1,  and sometimes for objects in high orbits where the SDP4/SGP4 model
# fails.  Some documentation is in 'get_el.cpp' in the source code at
# https://www.github.com/Bill-Gray/sat_code ; look for 'hex' in that file,
# with the actual integration done in 'sdp4.cpp'.  But be aware:  it's my
# own extension,  doesn't work with other code,  and is therefore used
# only when necessary.
#
#    Also,  if you use a TLE outside the "correct" time range (between
# its MJD and that of the next TLE),  all bets are off.  I've carefully
# computed and minimized the worst error over the "correct" time frame,
# but the ephemeris may (or may not) diverge wildly outside of it.
#
# Ephem range: 61041.000000 61257.000000 1.000000
# Created Sun Dec 21 20:35:38 2025
# Ephemeris start:  1 Jan 2026  0:00:00
# Ephemeris end:    5 Aug 2026  0:00:00
# Times are all TDT
# Positions/velocities are in equatorial J2000
# Orbital elements:  2025-010D = NORAD 62719 = Falcon 9-427 Stage 2
#    Perigee 2025 Dec 17.70797 +/- 1.0202e-5 TT = 16:59:29 (JD 2461027.20797)
# A1: (283.365 +/- 8.906)e-11   A2: (-9.8950 +/- 3.6199)e-11
# A3: (-33.8568 +/- 4.6126)e-11 AU/day^2 [1/r^2]
# Epoch 2025 Dec 22.0 TT = JDT 2461031.5                           Gray
# M  69.95426891 +/- 0.0002602        (J2000 equator)
# n  16.29866063 +/- 4.6993e-5        Peri.   11.46074 +/- 0.0004278
# a332533.621 +/- 0.63917             Node    40.92288 +/- 0.0001465
# e   0.5270356 +/- 4.4521e-6         Incl.   28.47854 +/- 0.0001154
# P  22.0873d                H 26.57  G  0.15   U  6.1
# q 157276.557 +/- 1.1851    Q 507790.684 +/- 2.4457
# 44 of 74 observations 2025 Nov. 2-Dec. 21; mean residual 1".599/2.00 sigmas
#
# 1 NoradU COSPAR   Epoch.epoch     dn/dt/2  d2n/dt2/6 BSTAR    T El# C
# 2 NoradU Inclina RAAscNode Eccent  ArgPeri MeanAno  MeanMotion Rev# C

# Worst residual: 0.15 km
# MJD 61041.000000 (2026 Jan  1  0:00)
2025-010D = NORAD 62719 = Falcon 9-427 Stage 2
1 62719U 25010D   25365.99919926 -002M2COH -00746W4V -0020DWZUH 29134
2 62719                          +0003XA02 +0000DSLA -00019OEF     03

# Worst residual: 0.10 km
# MJD 61042.000000 (2026 Jan  2  0:00)
2025-010D = NORAD 62719 = Falcon 9-427 Stage 2
1 62719U 25010D   26001.99919926 -001MY0ED -006XABNF -002AB0XZH 29134
2 62719                          +00046WU9 +00018CQS -00010JP0     07

# Worst residual: 0.18 km
# MJD 61043.000000 (2026 Jan  3  0:00)
2025-010D = NORAD 62719 = Falcon 9-427 Stage 2
1 62719U 25010D   26002.99919926 -000LWIF0 -006IKC6A -002HOL04H 29134
2 62719                          +0004D2EG +000274SL -0000OBLA     07

# Worst residual: 0.36 km
# MJD 61044.000000 (2026 Jan  4  0:00)
2025-010D = NORAD 62719 = Falcon 9-427 Stage 2
1 62719U 25010D   26003.99919926 +000G0R0E -005UUW8K -002LMU8LH 29139
2 62719                          +0004DTQM +0003BHBZ -00007QNX     02

# Worst residual: 0.51 km
# MJD 61045.000000 (2026 Jan  5  0:00)
2025-010D = NORAD 62719 = Falcon 9-427 Stage 2
1 62719U 25010D   26004.99919926 +001H4ETJ -004WMYZD -002KVY01H 29139
2 62719                          +00045B8L +0004N0PV +0000F9V9     06

# Worst residual: 0.53 km
# MJD 61046.000000 (2026 Jan  6  0:00)
2025-010D = NORAD 62719 = Falcon 9-427 Stage 2
1 62719U 25010D   26005.99919926 +002EBA95 -003M0H90 -002DIM68H 29132
2 62719                          +0003F9J9 +00066VV2 +0001C6D0     09

# Worst residual: 0.45 km
# MJD 61047.000000 (2026 Jan  7  0:00)
2025-010D = NORAD 62719 = Falcon 9-427 Stage 2
1 62719U 25010D   26006.99919926 +0031GTIX -001X8J9M -001WK9QMH 29131
2 62719                          +0001P926 +0007V9KL +0002O16C     00

# Worst residual: 0.55 km
# MJD 61048.000000 (2026 Jan  8  0:00)
2025-010D = NORAD 62719 = Falcon 9-427 Stage 2
1 62719U 25010D   26007.99919926 +0031YAK4 +00043U3B -00123ST3H 29136
2 62719                          -00020OV8 +0008TLPK +0004F2JI     02

# Worst residual: 0.48 km
# MJD 61049.000000 (2026 Jan  9  0:00)
2025-010D = NORAD 62719 = Falcon 9-427 Stage 2
1 62719U 25010D   26008.99919926 +001WAXRW +0020RCBQ +0005OUD0H 29137
2 62719                          -0007MTBW +00066LOV +0005CP6C     08

# Worst residual: 0.36 km
# MJD 61050.000000 (2026 Jan 10  0:00)
2025-010D = NORAD 62719 = Falcon 9-427 Stage 2
1 62719U 25010D   26009.99919926 -000B4RIY +002S5H6D +0019XX8NH 29136
2 62719                          -0009S21H +000061LY +0003M5Q9     04

# Worst residual: 0.30 km
# MJD 61051.000000 (2026 Jan 11  0:00)
2025-010D = NORAD 62719 = Falcon 9-427 Stage 2
1 62719U 25010D   26010.99919926 -002GYMWS +002BATR0 +001V3V3GH 29134
2 62719                          -0007Y5TE -0003JFLD +0001EEU8     03

# Worst residual: 0.22 km
# MJD 61052.000000 (2026 Jan 12  0:00)
2025-010D = NORAD 62719 = Falcon 9-427 Stage 2
1 62719U 25010D   26011.99919926 -0043CEM6 +0019SR1Q +0020KK0OH 29130
2 62719                          -0005LXC4 -0004VQ5A -00000EKL     08

# Worst residual: 0.22 km
# MJD 61053.000000 (2026 Jan 13  0:00)
2025-010D = NORAD 62719 = Falcon 9-427 Stage 2
1 62719U 25010D   26012.99919926 -00572URY +0001W5HH +001WKOYXH 29136
2 62719                          -0003NTX8 -000569NH -0000UBAT     01

# Worst residual: 0.27 km
# MJD 61054.000000 (2026 Jan 14  0:00)
2025-010D = NORAD 62719 = Falcon 9-427 Stage 2
1 62719U 25010D   26013.99919926 -005VRGJC -0016CPLA +001MYMD3H 29133
2 62719                          -00023X4Y -00050P6R -0001CB62     09

# Worst residual: 0.24 km
# MJD 61055.000000 (2026 Jan 15  0:00)
2025-010D = NORAD 62719 = Falcon 9-427 Stage 2
1 62719U 25010D   26014.99919926 -0068D35A -002C8SXN +0019Y17JH 29138
2 62719                          -0000UKND -0004NI45 -0001N8L8     00

# Worst residual: 0.27 km
# MJD 61056.000000 (2026 Jan 16  0:00)
2025-010D = NORAD 62719 = Falcon 9-427 Stage 2
1 62719U 25010D   26015.99919926 -006B1R4A -003EFGEZ +000UVYPHH 29133
2 62719                          +000073W1 -000466DM -0001TMBQ     07

# Worst residual: 0.38 km
# MJD 61057.000000 (2026 Jan 17  0:00)
2025-010D = NORAD 62719 = Falcon 9-427 Stage 2
1 62719U 25010D   26016.99919926 -0065EL11 -004C4EGZ +000EP85SH 29134
2 62719                          +000133JC -0003M88L -0001WTFV     06

# Worst residual: 0.42 km
# MJD 61058.000000 (2026 Jan 18  0:00)
2025-010D = NORAD 62719 = Falcon 9-427 Stage 2
1 62719U 25010D   26017.99919926 -005SMPDL -0054S37I -0001Y8IUH 29135
2 62719                          +0001UPG8 -000309Y1 -0001XKYD     02

# Worst residual: 0.43 km
# MJD 61059.000000 (2026 Jan 19  0:00)
2025-010D = NORAD 62719 = Falcon 9-427 Stage 2
1 62719U 25010D   26018.99919926 -0059O02S -005RY5A2 -000IJAQ1H 29132
2 62719                          +0002ISG0 -0002CHCL -0001WAYR     04

# Worst residual: 0.53 km
# MJD 61060.000000 (2026 Jan 20  0:00)
2025-010D = NORAD 62719 = Falcon 9-427 Stage 2
1 62719U 25010D   26019.99919926 -004LAGFK -00696BLB -000YL41KH 29134
2 62719                          +00033VFK -0001MQ7D -0001T4UN     08

# Worst residual: 0.56 km
# MJD 61061.000000 (2026 Jan 21  0:00)
2025-010D = NORAD 62719 = Falcon 9-427 Stage 2
1 62719U 25010D   26020.99919926 -003S6Q3U -006JYDJI -001DN9C6H 29130
2 62719                          +0003M7BH -0000UOCJ -0001O0VC     00

# Worst residual: 0.56 km
# MJD 61062.000000 (2026 Jan 22  0:00)
2025-010D = NORAD 62719 = Falcon 9-427 Stage 2
1 62719U 25010D   26021.99919926 -002V0JSR -006NO7NE -001R81K3H 29135
2 62719                          +00041QJ7 +000008CT -0001GPYY     09

# Worst residual: 0.52 km
# MJD 61063.000000 (2026 Jan 23  0:00)
2025-010D = NORAD 62719 = Falcon 9-427 Stage 2
1 62719U 25010D   26022.99919926 -001UHMER -006JJSNJ -0022QJKHH 29139
2 62719                          +0004E1GB +0000YTNB -00016PTU     00

# Worst residual: 0.45 km
# MJD 61064.000000 (2026 Jan 24  0:00)
2025-010D = NORAD 62719 = Falcon 9-427 Stage 2
1 62719U 25010D   26023.99919926 -000RHWD5 -0066KIQ2 -002BFWTPH 29130
2 62719                          +0004M19J +000229RY -0000T4BP     09

